{"type":"FeatureCollection","features":[{"type":"Feature","properties":{"id":"e0","segment":0,"side":"east","union":"mohanganj","unionName":"Mohanganj","prob":0.041,"risk":"Low","riskRank":140,"score":0.23,"retreatRecentM":0,"erodedLastHa":0.0,"population":741,"buildings":37,"nisarHa":0.44,"nisarMajor":0,"nisarOutcome":"quiet"},"geometry":{"type":"Polygon","coordinates":[[[89.76202,25.41918],[89.76212,25.42369],[89.78199,25.42331],[89.78188,25.4188],[89.76202,25.41918]]]}},{"type":"Feature","properties":{"id":"w0","segment":0,"side":"west","union":"sreepur","unionName":"Sreepur","prob":0.091,"risk":"Low","riskRank":112,"score":0.362,"retreatRecentM":0,"erodedLastHa":0.0,"population":1007,"buildings":0,"nisarHa":0.0,"nisarMajor":0,"nisarOutcome":"quiet"},"geometry":{"type":"Polygon","coordinates":[[[89.60647,25.42202],[89.60657,25.42653],[89.62643,25.42618],[89.62634,25.42167],[89.60647,25.42202]]]}},{"type":"Feature","properties":{"id":"e1","segment":1,"side":"east","union":"mohanganj","unionName":"Mohanganj","prob":0.611,"risk":"Medium","riskRank":28,"score":0.637,"retreatRecentM":0,"erodedLastHa":0.0,"population":745,"buildings":240,"nisarHa":5.52,"nisarMajor":1,"nisarOutcome":"missed"},"geometry":{"type":"Polygon","coordinates":[[[89.76073,25.41469],[89.76083,25.4192],[89.78069,25.41883],[89.78059,25.41432],[89.76073,25.41469]]]}},{"type":"Feature","properties":{"id":"w1","segment":1,"side":"west","union":"sreepur","unionName":"Sreepur","prob":0.046,"risk":"Low","riskRank":136,"score":0.317,"retreatRecentM":0,"erodedLastHa":0.0,"population":1034,"buildings":81,"nisarHa":0.0,"nisarMajor":0,"nisarOutcome":"quiet"},"geometry":{"type":"Polygon","coordinates":[[[89.60558,25.41752],[89.60567,25.42204],[89.62554,25.42168],[89.62544,25.41717],[89.60558,25.41752]]]}},{"type":"Feature","properties":{"id":"e2","segment":2,"side":"east","union":"mohanganj","unionName":"Mohanganj","prob":0.814,"risk":"High","riskRank":7,"score":0.673,"retreatRecentM":0,"erodedLastHa":0.0,"population":682,"buildings":212,"nisarHa":5.2,"nisarMajor":1,"nisarOutcome":"hit"},"geometry":{"type":"Polygon","coordinates":[[[89.75923,25.41021],[89.75933,25.41472],[89.7792,25.41434],[89.77909,25.40983],[89.75923,25.41021]]]}},{"type":"Feature","properties":{"id":"w2","segment":2,"side":"west","union":"sreepur","unionName":"Sreepur","prob":0.017,"risk":"Low","riskRank":165,"score":0.234,"retreatRecentM":0,"erodedLastHa":0.0,"population":1008,"buildings":102,"nisarHa":0.0,"nisarMajor":0,"nisarOutcome":"quiet"},"geometry":{"type":"Polygon","coordinates":[[[89.60568,25.41301],[89.60578,25.41752],[89.62564,25.41717],[89.62554,25.41266],[89.60568,25.41301]]]}},{"type":"Feature","properties":{"id":"e3","segment":3,"side":"east","union":"mohanganj","unionName":"Mohanganj","prob":0.05,"risk":"Low","riskRank":131,"score":0.264,"retreatRecentM":0,"erodedLastHa":0.0,"population":696,"buildings":94,"nisarHa":0.0,"nisarMajor":0,"nisarOutcome":"quiet"},"geometry":{"type":"Polygon","coordinates":[[[89.75913,25.4057],[89.75923,25.41021],[89.77909,25.40983],[89.77899,25.40532],[89.75913,25.4057]]]}},{"type":"Feature","properties":{"id":"w3","segment":3,"side":"west","union":"sreepur","unionName":"Sreepur","prob":0.018,"risk":"Low","riskRank":161,"score":0.277,"retreatRecentM":0,"erodedLastHa":0.0,"population":1065,"buildings":139,"nisarHa":0.0,"nisarMajor":0,"nisarOutcome":"quiet"},"geometry":{"type":"Polygon","coordinates":[[[89.60558,25.4085],[89.60568,25.41301],[89.62554,25.41266],[89.62545,25.40815],[89.60558,25.4085]]]}},{"type":"Feature","properties":{"id":"e4","segment":4,"side":"east","union":"mohanganj","unionName":"Mohanganj","prob":0.014,"risk":"Low","riskRank":170,"score":0.241,"retreatRecentM":0,"erodedLastHa":0.0,"population":769,"buildings":339,"nisarHa":0.0,"nisarMajor":0,"nisarOutcome":"quiet"},"geometry":{"type":"Polygon","coordinates":[[[89.75724,25.40122],[89.75734,25.40573],[89.7772,25.40536],[89.7771,25.40085],[89.75724,25.40122]]]}},{"type":"Feature","properties":{"id":"w4","segment":4,"side":"west","union":"malibari","unionName":"Malibari","prob":0.02,"risk":"Low","riskRank":157,"score":0.308,"retreatRecentM":0,"erodedLastHa":0.0,"population":1102,"buildings":165,"nisarHa":0.0,"nisarMajor":0,"nisarOutcome":"quiet"},"geometry":{"type":"Polygon","coordinates":[[[89.60608,25.40398],[89.60618,25.40849],[89.62604,25.40814],[89.62595,25.40363],[89.60608,25.40398]]]}},{"type":"Feature","properties":{"id":"e5","segment":5,"side":"east","union":"mohanganj","unionName":"Mohanganj","prob":0.055,"risk":"Low","riskRank":126,"score":0.415,"retreatRecentM":20,"erodedLastHa":0.0,"population":744,"buildings":173,"nisarHa":0.0,"nisarMajor":0,"nisarOutcome":"quiet"},"geometry":{"type":"Polygon","coordinates":[[[89.75436,25.39676],[89.75446,25.40127],[89.77432,25.4009],[89.77422,25.39639],[89.75436,25.39676]]]}},{"type":"Feature","properties":{"id":"w5","segment":5,"side":"west","union":"malibari","unionName":"Malibari","prob":0.026,"risk":"Low","riskRank":151,"score":0.298,"retreatRecentM":0,"erodedLastHa":0.0,"population":1089,"buildings":115,"nisarHa":0.0,"nisarMajor":0,"nisarOutcome":"quiet"},"geometry":{"type":"Polygon","coordinates":[[[89.60817,25.39943],[89.60827,25.40394],[89.62813,25.40359],[89.62803,25.39908],[89.60817,25.39943]]]}},{"type":"Feature","properties":{"id":"e6","segment":6,"side":"east","union":"mohanganj","unionName":"Mohanganj","prob":0.03,"risk":"Low","riskRank":148,"score":0.369,"retreatRecentM":30,"erodedLastHa":0.0,"population":679,"buildings":257,"nisarHa":0.2,"nisarMajor":0,"nisarOutcome":"quiet"},"geometry":{"type":"Polygon","coordinates":[[[89.75306,25.39227],[89.75316,25.39678],[89.77303,25.39641],[89.77292,25.3919],[89.75306,25.39227]]]}},{"type":"Feature","properties":{"id":"w6","segment":6,"side":"west","union":"malibari","unionName":"Malibari","prob":0.025,"risk":"Low","riskRank":153,"score":0.309,"retreatRecentM":0,"erodedLastHa":0.0,"population":1108,"buildings":140,"nisarHa":0.0,"nisarMajor":0,"nisarOutcome":"quiet"},"geometry":{"type":"Polygon","coordinates":[[[89.61105,25.39487],[89.61115,25.39938],[89.63101,25.39902],[89.63091,25.39451],[89.61105,25.39487]]]}},{"type":"Feature","properties":{"id":"e7","segment":7,"side":"east","union":"mohanganj","unionName":"Mohanganj","prob":0.032,"risk":"Low","riskRank":147,"score":0.196,"retreatRecentM":0,"erodedLastHa":0.0,"population":649,"buildings":65,"nisarHa":0.04,"nisarMajor":0,"nisarOutcome":"quiet"},"geometry":{"type":"Polygon","coordinates":[[[89.75137,25.38779],[89.75147,25.3923],[89.77133,25.39193],[89.77123,25.38742],[89.75137,25.38779]]]}},{"type":"Feature","properties":{"id":"w7","segment":7,"side":"west","union":"gidari","unionName":"Gidari","prob":0.05,"risk":"Low","riskRank":132,"score":0.408,"retreatRecentM":0,"erodedLastHa":0.0,"population":1093,"buildings":260,"nisarHa":0.0,"nisarMajor":0,"nisarOutcome":"quiet"},"geometry":{"type":"Polygon","coordinates":[[[89.61195,25.39034],[89.61204,25.39485],[89.63191,25.39449],[89.63181,25.38998],[89.61195,25.39034]]]}},{"type":"Feature","properties":{"id":"e8","segment":8,"side":"east","union":"mohanganj","unionName":"Mohanganj","prob":0.245,"risk":"Low","riskRank":83,"score":0.377,"retreatRecentM":0,"erodedLastHa":0.0,"population":613,"buildings":78,"nisarHa":1.44,"nisarMajor":0,"nisarOutcome":"quiet"},"geometry":{"type":"Polygon","coordinates":[[[89.74948,25.38332],[89.74958,25.38783],[89.76944,25.38746],[89.76934,25.38295],[89.74948,25.38332]]]}},{"type":"Feature","properties":{"id":"w8","segment":8,"side":"west","union":"gidari","unionName":"Gidari","prob":0.023,"risk":"Low","riskRank":155,"score":0.268,"retreatRecentM":0,"erodedLastHa":0.0,"population":1042,"buildings":83,"nisarHa":0.0,"nisarMajor":0,"nisarOutcome":"quiet"},"geometry":{"type":"Polygon","coordinates":[[[89.61205,25.38582],[89.61215,25.39033],[89.63201,25.38998],[89.63191,25.38547],[89.61205,25.38582]]]}},{"type":"Feature","properties":{"id":"e9","segment":9,"side":"east","union":"mohanganj","unionName":"Mohanganj","prob":0.058,"risk":"Low","riskRank":124,"score":0.313,"retreatRecentM":0,"erodedLastHa":0.0,"population":813,"buildings":96,"nisarHa":1.96,"nisarMajor":0,"nisarOutcome":"quiet"},"geometry":{"type":"Polygon","coordinates":[[[89.74858,25.37882],[89.74869,25.38333],[89.76855,25.38296],[89.76844,25.37845],[89.74858,25.37882]]]}},{"type":"Feature","properties":{"id":"w9","segment":9,"side":"west","union":"gidari","unionName":"Gidari","prob":0.677,"risk":"Medium","riskRank":22,"score":0.628,"retreatRecentM":0,"erodedLastHa":2.44,"population":985,"buildings":53,"nisarHa":0.0,"nisarMajor":0,"nisarOutcome":"quiet"},"geometry":{"type":"Polygon","coordinates":[[[89.61294,25.3813],[89.61304,25.38581],[89.6329,25.38545],[89.63281,25.38094],[89.61294,25.3813]]]}},{"type":"Feature","properties":{"id":"e10","segment":10,"side":"east","union":"char-aomkhaoa","unionName":"Char Aomkhaoa","prob":0.091,"risk":"Low","riskRank":113,"score":0.485,"retreatRecentM":0,"erodedLastHa":0.0,"population":1201,"buildings":238,"nisarHa":0.04,"nisarMajor":0,"nisarOutcome":"quiet"},"geometry":{"type":"Polygon","coordinates":[[[89.74729,25.37433],[89.74739,25.37884],[89.76725,25.37847],[89.76715,25.37396],[89.74729,25.37433]]]}},{"type":"Feature","properties":{"id":"w10","segment":10,"side":"west","union":"gidari","unionName":"Gidari","prob":0.541,"risk":"Medium","riskRank":43,"score":0.553,"retreatRecentM":0,"erodedLastHa":2.2,"population":929,"buildings":53,"nisarHa":0.0,"nisarMajor":0,"nisarOutcome":"quiet"},"geometry":{"type":"Polygon","coordinates":[[[89.61305,25.37678],[89.61314,25.38129],[89.633,25.38094],[89.63291,25.37643],[89.61305,25.37678]]]}},{"type":"Feature","properties":{"id":"e11","segment":11,"side":"east","union":"char-aomkhaoa","unionName":"Char Aomkhaoa","prob":0.186,"risk":"Low","riskRank":91,"score":0.672,"retreatRecentM":50,"erodedLastHa":2.4,"population":1300,"buildings":271,"nisarHa":0.0,"nisarMajor":0,"nisarOutcome":"quiet"},"geometry":{"type":"Polygon","coordinates":[[[89.74659,25.36984],[89.7467,25.37435],[89.76655,25.37397],[89.76645,25.36946],[89.74659,25.36984]]]}},{"type":"Feature","properties":{"id":"w11","segment":11,"side":"west","union":"gidari","unionName":"Gidari","prob":0.557,"risk":"Medium","riskRank":37,"score":0.585,"retreatRecentM":0,"erodedLastHa":4.48,"population":983,"buildings":67,"nisarHa":0.0,"nisarMajor":0,"nisarOutcome":"quiet"},"geometry":{"type":"Polygon","coordinates":[[[89.61315,25.37227],[89.61324,25.37678],[89.6331,25.37642],[89.63301,25.37191],[89.61315,25.37227]]]}},{"type":"Feature","properties":{"id":"e12","segment":12,"side":"east","union":"char-aomkhaoa","unionName":"Char Aomkhaoa","prob":0.237,"risk":"Low","riskRank":86,"score":0.69,"retreatRecentM":60,"erodedLastHa":2.76,"population":1401,"buildings":228,"nisarHa":1.6,"nisarMajor":0,"nisarOutcome":"quiet"},"geometry":{"type":"Polygon","coordinates":[[[89.7455,25.36534],[89.7456,25.36985],[89.76546,25.36948],[89.76535,25.36497],[89.7455,25.36534]]]}},{"type":"Feature","properties":{"id":"w12","segment":12,"side":"west","union":"gidari","unionName":"Gidari","prob":0.595,"risk":"Medium","riskRank":29,"score":0.747,"retreatRecentM":20,"erodedLastHa":12.44,"population":1079,"buildings":135,"nisarHa":0.24,"nisarMajor":0,"nisarOutcome":"quiet"},"geometry":{"type":"Polygon","coordinates":[[[89.61285,25.36776],[89.61295,25.37227],[89.63281,25.37192],[89.63271,25.36741],[89.61285,25.36776]]]}},{"type":"Feature","properties":{"id":"e13","segment":13,"side":"east","union":"char-aomkhaoa","unionName":"Char Aomkhaoa","prob":0.192,"risk":"Low","riskRank":89,"score":0.684,"retreatRecentM":100,"erodedLastHa":2.6,"population":1355,"buildings":195,"nisarHa":0.08,"nisarMajor":0,"nisarOutcome":"quiet"},"geometry":{"type":"Polygon","coordinates":[[[89.74361,25.36087],[89.74371,25.36538],[89.76357,25.36501],[89.76346,25.3605],[89.74361,25.36087]]]}},{"type":"Feature","properties":{"id":"w13","segment":13,"side":"west","union":"gidari","unionName":"Gidari","prob":0.496,"risk":"Medium","riskRank":50,"score":0.641,"retreatRecentM":50,"erodedLastHa":12.84,"population":916,"buildings":81,"nisarHa":0.92,"nisarMajor":0,"nisarOutcome":"quiet"},"geometry":{"type":"Polygon","coordinates":[[[89.61295,25.36325],[89.61305,25.36776],[89.63291,25.3674],[89.63281,25.36289],[89.61295,25.36325]]]}},{"type":"Feature","properties":{"id":"e14","segment":14,"side":"east","union":"char-aomkhaoa","unionName":"Char Aomkhaoa","prob":0.445,"risk":"Medium","riskRank":52,"score":0.656,"retreatRecentM":0,"erodedLastHa":1.52,"population":1270,"buildings":187,"nisarHa":0.0,"nisarMajor":0,"nisarOutcome":"quiet"},"geometry":{"type":"Polygon","coordinates":[[[89.74152,25.35639],[89.74162,25.3609],[89.76148,25.36053],[89.76138,25.35602],[89.74152,25.35639]]]}},{"type":"Feature","properties":{"id":"w14","segment":14,"side":"west","union":"gidari","unionName":"Gidari","prob":0.329,"risk":"Low","riskRank":68,"score":0.588,"retreatRecentM":60,"erodedLastHa":4.04,"population":854,"buildings":87,"nisarHa":1.28,"nisarMajor":0,"nisarOutcome":"quiet"},"geometry":{"type":"Polygon","coordinates":[[[89.61206,25.35875],[89.61216,25.36326],[89.63202,25.36291],[89.63192,25.3584],[89.61206,25.35875]]]}},{"type":"Feature","properties":{"id":"e15","segment":15,"side":"east","union":"char-aomkhaoa","unionName":"Char Aomkhaoa","prob":0.078,"risk":"Low","riskRank":118,"score":0.575,"retreatRecentM":20,"erodedLastHa":0.0,"population":1230,"buildings":325,"nisarHa":0.0,"nisarMajor":0,"nisarOutcome":"quiet"},"geometry":{"type":"Polygon","coordinates":[[[89.74063,25.3519],[89.74073,25.35641],[89.76058,25.35604],[89.76048,25.35153],[89.74063,25.3519]]]}},{"type":"Feature","properties":{"id":"w15","segment":15,"side":"west","union":"gidari","unionName":"Gidari","prob":0.138,"risk":"Low","riskRank":100,"score":0.463,"retreatRecentM":40,"erodedLastHa":1.44,"population":754,"buildings":70,"nisarHa":0.28,"nisarMajor":0,"nisarOutcome":"quiet"},"geometry":{"type":"Polygon","coordinates":[[[89.61216,25.35424],[89.61226,25.35875],[89.63212,25.35839],[89.63202,25.35388],[89.61216,25.35424]]]}},{"type":"Feature","properties":{"id":"e16","segment":16,"side":"east","union":"char-aomkhaoa","unionName":"Char Aomkhaoa","prob":0.134,"risk":"Low","riskRank":102,"score":0.56,"retreatRecentM":20,"erodedLastHa":1.16,"population":1152,"buildings":152,"nisarHa":0.0,"nisarMajor":0,"nisarOutcome":"quiet"},"geometry":{"type":"Polygon","coordinates":[[[89.73715,25.34745],[89.73725,25.35196],[89.7571,25.35159],[89.757,25.34708],[89.73715,25.34745]]]}},{"type":"Feature","properties":{"id":"w16","segment":16,"side":"west","union":"gidari","unionName":"Gidari","prob":0.678,"risk":"Medium","riskRank":21,"score":0.553,"retreatRecentM":0,"erodedLastHa":0.0,"population":479,"buildings":107,"nisarHa":0.76,"nisarMajor":0,"nisarOutcome":"quiet"},"geometry":{"type":"Polygon","coordinates":[[[89.61584,25.34966],[89.61594,25.35417],[89.63579,25.35381],[89.63569,25.3493],[89.61584,25.34966]]]}},{"type":"Feature","properties":{"id":"e17","segment":17,"side":"east","union":"char-aomkhaoa","unionName":"Char Aomkhaoa","prob":0.336,"risk":"Low","riskRank":67,"score":0.597,"retreatRecentM":0,"erodedLastHa":0.0,"population":1118,"buildings":229,"nisarHa":0.0,"nisarMajor":0,"nisarOutcome":"quiet"},"geometry":{"type":"Polygon","coordinates":[[[89.73228,25.34303],[89.73238,25.34754],[89.75224,25.34717],[89.75214,25.34266],[89.73228,25.34303]]]}},{"type":"Feature","properties":{"id":"w17","segment":17,"side":"west","union":"gidari","unionName":"Gidari","prob":0.741,"risk":"High","riskRank":18,"score":0.515,"retreatRecentM":0,"erodedLastHa":0.0,"population":306,"buildings":11,"nisarHa":0.0,"nisarMajor":0,"nisarOutcome":"not_yet"},"geometry":{"type":"Polygon","coordinates":[[[89.61733,25.34512],[89.61743,25.34963],[89.63728,25.34928],[89.63719,25.34476],[89.61733,25.34512]]]}},{"type":"Feature","properties":{"id":"e18","segment":18,"side":"east","union":"char-aomkhaoa","unionName":"Char Aomkhaoa","prob":0.617,"risk":"Medium","riskRank":27,"score":0.676,"retreatRecentM":0,"erodedLastHa":0.0,"population":1057,"buildings":165,"nisarHa":5.04,"nisarMajor":1,"nisarOutcome":"missed"},"geometry":{"type":"Polygon","coordinates":[[[89.7292,25.33857],[89.72931,25.34309],[89.74916,25.34272],[89.74906,25.33821],[89.7292,25.33857]]]}},{"type":"Feature","properties":{"id":"w18","segment":18,"side":"west","union":"kamarjani","unionName":"Kamarjani","prob":0.753,"risk":"High","riskRank":16,"score":0.526,"retreatRecentM":0,"erodedLastHa":0.0,"population":333,"buildings":14,"nisarHa":0.0,"nisarMajor":0,"nisarOutcome":"not_yet"},"geometry":{"type":"Polygon","coordinates":[[[89.61644,25.34062],[89.61654,25.34513],[89.63639,25.34478],[89.63629,25.34027],[89.61644,25.34062]]]}},{"type":"Feature","properties":{"id":"e19","segment":19,"side":"east","union":"char-aomkhaoa","unionName":"Char Aomkhaoa","prob":0.08,"risk":"Low","riskRank":117,"score":0.449,"retreatRecentM":0,"erodedLastHa":0.0,"population":1021,"buildings":410,"nisarHa":0.16,"nisarMajor":0,"nisarOutcome":"quiet"},"geometry":{"type":"Polygon","coordinates":[[[89.72851,25.33408],[89.72861,25.33859],[89.74846,25.33822],[89.74836,25.33371],[89.72851,25.33408]]]}},{"type":"Feature","properties":{"id":"w19","segment":19,"side":"west","union":"gidari","unionName":"Gidari","prob":0.659,"risk":"Medium","riskRank":24,"score":0.516,"retreatRecentM":0,"erodedLastHa":0.0,"population":452,"buildings":36,"nisarHa":2.08,"nisarMajor":0,"nisarOutcome":"quiet"},"geometry":{"type":"Polygon","coordinates":[[[89.61039,25.33622],[89.61048,25.34073],[89.63034,25.34037],[89.63024,25.33586],[89.61039,25.33622]]]}},{"type":"Feature","properties":{"id":"e20","segment":20,"side":"east","union":"char-aomkhaoa","unionName":"Char Aomkhaoa","prob":0.036,"risk":"Low","riskRank":141,"score":0.429,"retreatRecentM":20,"erodedLastHa":0.0,"population":863,"buildings":343,"nisarHa":0.0,"nisarMajor":0,"nisarOutcome":"quiet"},"geometry":{"type":"Polygon","coordinates":[[[89.72563,25.32962],[89.72573,25.33413],[89.74558,25.33376],[89.74548,25.32925],[89.72563,25.32962]]]}},{"type":"Feature","properties":{"id":"w20","segment":20,"side":"west","union":"gidari","unionName":"Gidari","prob":0.272,"risk":"Low","riskRank":77,"score":0.367,"retreatRecentM":0,"erodedLastHa":1.6,"population":517,"buildings":20,"nisarHa":3.12,"nisarMajor":0,"nisarOutcome":"quiet"},"geometry":{"type":"Polygon","coordinates":[[[89.60215,25.33185],[89.60225,25.33636],[89.6221,25.33601],[89.622,25.3315],[89.60215,25.33185]]]}},{"type":"Feature","properties":{"id":"e21","segment":21,"side":"east","union":"erendabari","unionName":"Erendabari","prob":0.134,"risk":"Low","riskRank":101,"score":0.39,"retreatRecentM":0,"erodedLastHa":0.24,"population":743,"buildings":153,"nisarHa":0.0,"nisarMajor":0,"nisarOutcome":"quiet"},"geometry":{"type":"Polygon","coordinates":[[[89.72354,25.32514],[89.72364,25.32965],[89.74349,25.32929],[89.74339,25.32478],[89.72354,25.32514]]]}},{"type":"Feature","properties":{"id":"w21","segment":21,"side":"west","union":"kanchi-para","unionName":"Kanchi Para","prob":0.32,"risk":"Low","riskRank":69,"score":0.433,"retreatRecentM":0,"erodedLastHa":1.88,"population":736,"buildings":19,"nisarHa":1.44,"nisarMajor":0,"nisarOutcome":"quiet"},"geometry":{"type":"Polygon","coordinates":[[[89.59729,25.32742],[89.59739,25.33194],[89.61724,25.33158],[89.61714,25.32707],[89.59729,25.32742]]]}},{"type":"Feature","properties":{"id":"e22","segment":22,"side":"east","union":"erendabari","unionName":"Erendabari","prob":0.245,"risk":"Low","riskRank":82,"score":0.392,"retreatRecentM":0,"erodedLastHa":4.72,"population":619,"buildings":89,"nisarHa":0.0,"nisarMajor":0,"nisarOutcome":"quiet"},"geometry":{"type":"Polygon","coordinates":[[[89.71887,25.32072],[89.71898,25.32523],[89.73883,25.32486],[89.73872,25.32035],[89.71887,25.32072]]]}},{"type":"Feature","properties":{"id":"w22","segment":22,"side":"west","union":"kanchi-para","unionName":"Kanchi Para","prob":0.306,"risk":"Low","riskRank":71,"score":0.473,"retreatRecentM":0,"erodedLastHa":0.36,"population":937,"buildings":53,"nisarHa":0.0,"nisarMajor":0,"nisarOutcome":"quiet"},"geometry":{"type":"Polygon","coordinates":[[[89.59521,25.32295],[89.5953,25.32746],[89.61516,25.32711],[89.61506,25.3226],[89.59521,25.32295]]]}},{"type":"Feature","properties":{"id":"e23","segment":23,"side":"east","union":"erendabari","unionName":"Erendabari","prob":0.518,"risk":"Medium","riskRank":47,"score":0.566,"retreatRecentM":70,"erodedLastHa":5.32,"population":346,"buildings":82,"nisarHa":0.0,"nisarMajor":0,"nisarOutcome":"quiet"},"geometry":{"type":"Polygon","coordinates":[[[89.70905,25.31639],[89.70915,25.3209],[89.729,25.32053],[89.7289,25.31602],[89.70905,25.31639]]]}},{"type":"Feature","properties":{"id":"w23","segment":23,"side":"west","union":"kanchi-para","unionName":"Kanchi Para","prob":0.021,"risk":"Low","riskRank":156,"score":0.347,"retreatRecentM":0,"erodedLastHa":0.0,"population":1197,"buildings":199,"nisarHa":0.0,"nisarMajor":0,"nisarOutcome":"quiet"},"geometry":{"type":"Polygon","coordinates":[[[89.59452,25.31845],[89.59461,25.32296],[89.61446,25.32261],[89.61437,25.3181],[89.59452,25.31845]]]}},{"type":"Feature","properties":{"id":"e24","segment":24,"side":"east","union":"erendabari","unionName":"Erendabari","prob":0.759,"risk":"High","riskRank":15,"score":0.561,"retreatRecentM":0,"erodedLastHa":2.0,"population":319,"buildings":130,"nisarHa":1.28,"nisarMajor":0,"nisarOutcome":"not_yet"},"geometry":{"type":"Polygon","coordinates":[[[89.70339,25.31198],[89.70349,25.31649],[89.72334,25.31612],[89.72324,25.31161],[89.70339,25.31198]]]}},{"type":"Feature","properties":{"id":"w24","segment":24,"side":"west","union":"kanchi-para","unionName":"Kanchi Para","prob":0.046,"risk":"Low","riskRank":134,"score":0.438,"retreatRecentM":0,"erodedLastHa":0.0,"population":1257,"buildings":288,"nisarHa":0.0,"nisarMajor":0,"nisarOutcome":"quiet"},"geometry":{"type":"Polygon","coordinates":[[[89.5964,25.3139],[89.5965,25.31841],[89.61635,25.31806],[89.61625,25.31355],[89.5964,25.3139]]]}},{"type":"Feature","properties":{"id":"e25","segment":25,"side":"east","union":"erendabari","unionName":"Erendabari","prob":0.486,"risk":"Medium","riskRank":51,"score":0.515,"retreatRecentM":0,"erodedLastHa":0.0,"population":354,"buildings":317,"nisarHa":0.0,"nisarMajor":0,"nisarOutcome":"quiet"},"geometry":{"type":"Polygon","coordinates":[[[89.70329,25.30747],[89.70339,25.31198],[89.72324,25.31161],[89.72314,25.3071],[89.70329,25.30747]]]}},{"type":"Feature","properties":{"id":"w25","segment":25,"side":"west","union":"kanchi-para","unionName":"Kanchi Para","prob":0.083,"risk":"Low","riskRank":116,"score":0.497,"retreatRecentM":10,"erodedLastHa":0.0,"population":1035,"buildings":200,"nisarHa":0.0,"nisarMajor":0,"nisarOutcome":"quiet"},"geometry":{"type":"Polygon","coordinates":[[[89.59849,25.30935],[89.59859,25.31386],[89.61844,25.31351],[89.61834,25.309],[89.59849,25.30935]]]}},{"type":"Feature","properties":{"id":"e26","segment":26,"side":"east","union":"erendabari","unionName":"Erendabari","prob":0.191,"risk":"Low","riskRank":90,"score":0.485,"retreatRecentM":10,"erodedLastHa":0.0,"population":373,"buildings":504,"nisarHa":0.0,"nisarMajor":0,"nisarOutcome":"quiet"},"geometry":{"type":"Polygon","coordinates":[[[89.70458,25.30293],[89.70468,25.30744],[89.72453,25.30708],[89.72443,25.30257],[89.70458,25.30293]]]}},{"type":"Feature","properties":{"id":"w26","segment":26,"side":"west","union":"kanchi-para","unionName":"Kanchi Para","prob":0.077,"risk":"Low","riskRank":119,"score":0.396,"retreatRecentM":0,"erodedLastHa":0.0,"population":972,"buildings":185,"nisarHa":0.0,"nisarMajor":0,"nisarOutcome":"quiet"},"geometry":{"type":"Polygon","coordinates":[[[89.5978,25.30485],[89.5979,25.30936],[89.61775,25.30901],[89.61765,25.3045],[89.5978,25.30485]]]}},{"type":"Feature","properties":{"id":"e27","segment":27,"side":"east","union":"erendabari","unionName":"Erendabari","prob":0.592,"risk":"Medium","riskRank":30,"score":0.654,"retreatRecentM":20,"erodedLastHa":1.84,"population":323,"buildings":288,"nisarHa":1.32,"nisarMajor":0,"nisarOutcome":"quiet"},"geometry":{"type":"Polygon","coordinates":[[[89.70547,25.2984],[89.70557,25.30291],[89.72542,25.30255],[89.72532,25.29804],[89.70547,25.2984]]]}},{"type":"Feature","properties":{"id":"w27","segment":27,"side":"west","union":"kanchi-para","unionName":"Kanchi Para","prob":0.05,"risk":"Low","riskRank":130,"score":0.382,"retreatRecentM":10,"erodedLastHa":0.0,"population":829,"buildings":129,"nisarHa":0.0,"nisarMajor":0,"nisarOutcome":"quiet"},"geometry":{"type":"Polygon","coordinates":[[[89.59711,25.30035],[89.5972,25.30486],[89.61705,25.30451],[89.61696,25.3],[89.59711,25.30035]]]}},{"type":"Feature","properties":{"id":"e28","segment":28,"side":"east","union":"erendabari","unionName":"Erendabari","prob":0.663,"risk":"Medium","riskRank":23,"score":0.596,"retreatRecentM":0,"erodedLastHa":0.4,"population":366,"buildings":300,"nisarHa":0.0,"nisarMajor":0,"nisarOutcome":"quiet"},"geometry":{"type":"Polygon","coordinates":[[[89.70676,25.29387],[89.70686,25.29838],[89.72671,25.29801],[89.72661,25.2935],[89.70676,25.29387]]]}},{"type":"Feature","properties":{"id":"w28","segment":28,"side":"west","union":"kanchi-para","unionName":"Kanchi Para","prob":0.018,"risk":"Low","riskRank":164,"score":0.297,"retreatRecentM":10,"erodedLastHa":0.0,"population":865,"buildings":145,"nisarHa":0.16,"nisarMajor":0,"nisarOutcome":"quiet"},"geometry":{"type":"Polygon","coordinates":[[[89.59562,25.29587],[89.59572,25.30038],[89.61557,25.30003],[89.61547,25.29552],[89.59562,25.29587]]]}},{"type":"Feature","properties":{"id":"e29","segment":29,"side":"east","union":"erendabari","unionName":"Erendabari","prob":0.543,"risk":"Medium","riskRank":41,"score":0.537,"retreatRecentM":0,"erodedLastHa":1.76,"population":399,"buildings":226,"nisarHa":0.0,"nisarMajor":0,"nisarOutcome":"quiet"},"geometry":{"type":"Polygon","coordinates":[[[89.70884,25.28932],[89.70894,25.29383],[89.72879,25.29346],[89.72869,25.28895],[89.70884,25.28932]]]}},{"type":"Feature","properties":{"id":"w29","segment":29,"side":"west","union":"kanchi-para","unionName":"Kanchi Para","prob":0.21,"risk":"Low","riskRank":87,"score":0.493,"retreatRecentM":10,"erodedLastHa":0.0,"population":801,"buildings":108,"nisarHa":1.8,"nisarMajor":0,"nisarOutcome":"quiet"},"geometry":{"type":"Polygon","coordinates":[[[89.59414,25.29138],[89.59423,25.29589],[89.61408,25.29554],[89.61398,25.29103],[89.59414,25.29138]]]}},{"type":"Feature","properties":{"id":"e30","segment":30,"side":"east","union":"erendabari","unionName":"Erendabari","prob":0.388,"risk":"Low","riskRank":58,"score":0.451,"retreatRecentM":0,"erodedLastHa":0.28,"population":460,"buildings":124,"nisarHa":1.0,"nisarMajor":0,"nisarOutcome":"quiet"},"geometry":{"type":"Polygon","coordinates":[[[89.71033,25.28478],[89.71043,25.28929],[89.73027,25.28892],[89.73017,25.28441],[89.71033,25.28478]]]}},{"type":"Feature","properties":{"id":"w30","segment":30,"side":"west","union":"udakhali","unionName":"Udakhali","prob":0.073,"risk":"Low","riskRank":121,"score":0.422,"retreatRecentM":100,"erodedLastHa":0.0,"population":707,"buildings":100,"nisarHa":0.0,"nisarMajor":0,"nisarOutcome":"quiet"},"geometry":{"type":"Polygon","coordinates":[[[89.59186,25.28691],[89.59195,25.29142],[89.6118,25.29107],[89.6117,25.28656],[89.59186,25.28691]]]}},{"type":"Feature","properties":{"id":"e31","segment":31,"side":"east","union":"erendabari","unionName":"Erendabari","prob":0.507,"risk":"Medium","riskRank":48,"score":0.574,"retreatRecentM":10,"erodedLastHa":1.04,"population":608,"buildings":142,"nisarHa":0.0,"nisarMajor":0,"nisarOutcome":"quiet"},"geometry":{"type":"Polygon","coordinates":[[[89.71162,25.28024],[89.71172,25.28475],[89.73156,25.28439],[89.73146,25.27988],[89.71162,25.28024]]]}},{"type":"Feature","properties":{"id":"w31","segment":31,"side":"west","union":"udakhali","unionName":"Udakhali","prob":0.036,"risk":"Low","riskRank":143,"score":0.283,"retreatRecentM":0,"erodedLastHa":0.0,"population":657,"buildings":277,"nisarHa":0.0,"nisarMajor":0,"nisarOutcome":"quiet"},"geometry":{"type":"Polygon","coordinates":[[[89.59176,25.2824],[89.59186,25.28691],[89.6117,25.28656],[89.61161,25.28205],[89.59176,25.2824]]]}},{"type":"Feature","properties":{"id":"e32","segment":32,"side":"east","union":"erendabari","unionName":"Erendabari","prob":0.406,"risk":"Low","riskRank":56,"score":0.634,"retreatRecentM":40,"erodedLastHa":1.04,"population":619,"buildings":302,"nisarHa":0.0,"nisarMajor":0,"nisarOutcome":"quiet"},"geometry":{"type":"Polygon","coordinates":[[[89.7135,25.2757],[89.7136,25.28021],[89.73345,25.27984],[89.73334,25.27533],[89.7135,25.2757]]]}},{"type":"Feature","properties":{"id":"w32","segment":32,"side":"west","union":"uria","unionName":"Uria","prob":0.253,"risk":"Low","riskRank":80,"score":0.443,"retreatRecentM":0,"erodedLastHa":2.32,"population":734,"buildings":148,"nisarHa":0.0,"nisarMajor":0,"nisarOutcome":"quiet"},"geometry":{"type":"Polygon","coordinates":[[[89.59147,25.27789],[89.59156,25.2824],[89.61141,25.28205],[89.61131,25.27754],[89.59147,25.27789]]]}},{"type":"Feature","properties":{"id":"e33","segment":33,"side":"east","union":"erendabari","unionName":"Erendabari","prob":0.377,"risk":"Low","riskRank":60,"score":0.602,"retreatRecentM":70,"erodedLastHa":0.0,"population":587,"buildings":198,"nisarHa":0.0,"nisarMajor":0,"nisarOutcome":"quiet"},"geometry":{"type":"Polygon","coordinates":[[[89.71519,25.27115],[89.71529,25.27566],[89.73513,25.2753],[89.73503,25.27079],[89.71519,25.27115]]]}},{"type":"Feature","properties":{"id":"w33","segment":33,"side":"west","union":"uria","unionName":"Uria","prob":0.097,"risk":"Low","riskRank":107,"score":0.374,"retreatRecentM":0,"erodedLastHa":0.84,"population":714,"buildings":177,"nisarHa":0.0,"nisarMajor":0,"nisarOutcome":"quiet"},"geometry":{"type":"Polygon","coordinates":[[[89.59197,25.27337],[89.59206,25.27788],[89.61191,25.27753],[89.61181,25.27302],[89.59197,25.27337]]]}},{"type":"Feature","properties":{"id":"e34","segment":34,"side":"east","union":"erendabari","unionName":"Erendabari","prob":0.75,"risk":"High","riskRank":17,"score":0.752,"retreatRecentM":90,"erodedLastHa":0.0,"population":615,"buildings":224,"nisarHa":0.0,"nisarMajor":0,"nisarOutcome":"not_yet"},"geometry":{"type":"Polygon","coordinates":[[[89.71588,25.26663],[89.71598,25.27114],[89.73582,25.27077],[89.73572,25.26626],[89.71588,25.26663]]]}},{"type":"Feature","properties":{"id":"w34","segment":34,"side":"west","union":"uria","unionName":"Uria","prob":0.018,"risk":"Low","riskRank":163,"score":0.183,"retreatRecentM":0,"erodedLastHa":0.0,"population":731,"buildings":109,"nisarHa":0.0,"nisarMajor":0,"nisarOutcome":"quiet"},"geometry":{"type":"Polygon","coordinates":[[[89.59187,25.26886],[89.59197,25.27337],[89.61181,25.27302],[89.61171,25.26851],[89.59187,25.26886]]]}},{"type":"Feature","properties":{"id":"e35","segment":35,"side":"east","union":"erendabari","unionName":"Erendabari","prob":0.55,"risk":"Medium","riskRank":39,"score":0.616,"retreatRecentM":150,"erodedLastHa":2.92,"population":566,"buildings":42,"nisarHa":0.0,"nisarMajor":0,"nisarOutcome":"quiet"},"geometry":{"type":"Polygon","coordinates":[[[89.72015,25.26204],[89.72025,25.26655],[89.74009,25.26618],[89.73999,25.26167],[89.72015,25.26204]]]}},{"type":"Feature","properties":{"id":"w35","segment":35,"side":"west","union":"uria","unionName":"Uria","prob":0.053,"risk":"Low","riskRank":128,"score":0.292,"retreatRecentM":0,"erodedLastHa":0.0,"population":729,"buildings":129,"nisarHa":0.0,"nisarMajor":0,"nisarOutcome":"quiet"},"geometry":{"type":"Polygon","coordinates":[[[89.59178,25.26435],[89.59187,25.26886],[89.61171,25.26851],[89.61162,25.264],[89.59178,25.26435]]]}},{"type":"Feature","properties":{"id":"e36","segment":36,"side":"east","union":"erendabari","unionName":"Erendabari","prob":0.421,"risk":"Low","riskRank":55,"score":0.547,"retreatRecentM":20,"erodedLastHa":3.32,"population":584,"buildings":100,"nisarHa":1.96,"nisarMajor":0,"nisarOutcome":"quiet"},"geometry":{"type":"Polygon","coordinates":[[[89.71985,25.25753],[89.71995,25.26204],[89.73979,25.26167],[89.73969,25.25716],[89.71985,25.25753]]]}},{"type":"Feature","properties":{"id":"w36","segment":36,"side":"west","union":"udakhali","unionName":"Udakhali","prob":0.126,"risk":"Low","riskRank":103,"score":0.444,"retreatRecentM":30,"erodedLastHa":0.0,"population":671,"buildings":116,"nisarHa":0.0,"nisarMajor":0,"nisarOutcome":"quiet"},"geometry":{"type":"Polygon","coordinates":[[[89.59148,25.25984],[89.59158,25.26435],[89.61142,25.264],[89.61132,25.25949],[89.59148,25.25984]]]}},{"type":"Feature","properties":{"id":"e37","segment":37,"side":"east","union":"erendabari","unionName":"Erendabari","prob":0.267,"risk":"Low","riskRank":79,"score":0.435,"retreatRecentM":0,"erodedLastHa":0.0,"population":577,"buildings":208,"nisarHa":0.8,"nisarMajor":0,"nisarOutcome":"quiet"},"geometry":{"type":"Polygon","coordinates":[[[89.71994,25.25302],[89.72005,25.25753],[89.73988,25.25716],[89.73978,25.25265],[89.71994,25.25302]]]}},{"type":"Feature","properties":{"id":"w37","segment":37,"side":"west","union":"uria","unionName":"Uria","prob":0.146,"risk":"Low","riskRank":96,"score":0.528,"retreatRecentM":90,"erodedLastHa":0.0,"population":744,"buildings":160,"nisarHa":0.0,"nisarMajor":0,"nisarOutcome":"quiet"},"geometry":{"type":"Polygon","coordinates":[[[89.59119,25.25533],[89.59128,25.25984],[89.61112,25.25949],[89.61103,25.25498],[89.59119,25.25533]]]}},{"type":"Feature","properties":{"id":"e38","segment":38,"side":"east","union":"erendabari","unionName":"Erendabari","prob":0.846,"risk":"High","riskRank":2,"score":0.667,"retreatRecentM":0,"erodedLastHa":0.0,"population":600,"buildings":215,"nisarHa":0.0,"nisarMajor":0,"nisarOutcome":"not_yet"},"geometry":{"type":"Polygon","coordinates":[[[89.71826,25.24854],[89.71836,25.25305],[89.7382,25.25268],[89.73809,25.24817],[89.71826,25.24854]]]}},{"type":"Feature","properties":{"id":"w38","segment":38,"side":"west","union":"uria","unionName":"Uria","prob":0.244,"risk":"Low","riskRank":84,"score":0.522,"retreatRecentM":60,"erodedLastHa":0.4,"population":692,"buildings":127,"nisarHa":0.0,"nisarMajor":0,"nisarOutcome":"quiet"},"geometry":{"type":"Polygon","coordinates":[[[89.5903,25.25084],[89.59039,25.25535],[89.61023,25.255],[89.61014,25.25049],[89.5903,25.25084]]]}},{"type":"Feature","properties":{"id":"e39","segment":39,"side":"east","union":"erendabari","unionName":"Erendabari","prob":0.358,"risk":"Low","riskRank":65,"score":0.486,"retreatRecentM":0,"erodedLastHa":1.16,"population":615,"buildings":208,"nisarHa":0.0,"nisarMajor":0,"nisarOutcome":"quiet"},"geometry":{"type":"Polygon","coordinates":[[[89.71935,25.244],[89.71945,25.24851],[89.73928,25.24815],[89.73918,25.24364],[89.71935,25.244]]]}},{"type":"Feature","properties":{"id":"w39","segment":39,"side":"west","union":"uria","unionName":"Uria","prob":0.627,"risk":"Medium","riskRank":26,"score":0.706,"retreatRecentM":80,"erodedLastHa":4.28,"population":627,"buildings":169,"nisarHa":1.72,"nisarMajor":0,"nisarOutcome":"quiet"},"geometry":{"type":"Polygon","coordinates":[[[89.58782,25.24637],[89.58792,25.25088],[89.60776,25.25053],[89.60766,25.24602],[89.58782,25.24637]]]}},{"type":"Feature","properties":{"id":"e40","segment":40,"side":"east","union":"erendabari","unionName":"Erendabari","prob":0.729,"risk":"Medium","riskRank":19,"score":0.618,"retreatRecentM":0,"erodedLastHa":0.0,"population":544,"buildings":266,"nisarHa":0.08,"nisarMajor":0,"nisarOutcome":"quiet"},"geometry":{"type":"Polygon","coordinates":[[[89.70992,25.23966],[89.71002,25.24417],[89.72986,25.24381],[89.72976,25.2393],[89.70992,25.23966]]]}},{"type":"Feature","properties":{"id":"w40","segment":40,"side":"west","union":"udakhali","unionName":"Udakhali","prob":0.875,"risk":"High","riskRank":1,"score":0.731,"retreatRecentM":160,"erodedLastHa":6.16,"population":578,"buildings":43,"nisarHa":0.0,"nisarMajor":0,"nisarOutcome":"not_yet"},"geometry":{"type":"Polygon","coordinates":[[[89.58594,25.24189],[89.58604,25.2464],[89.60588,25.24605],[89.60578,25.24154],[89.58594,25.24189]]]}},{"type":"Feature","properties":{"id":"e41","segment":41,"side":"east","union":"erendabari","unionName":"Erendabari","prob":0.37,"risk":"Low","riskRank":62,"score":0.486,"retreatRecentM":0,"erodedLastHa":1.68,"population":561,"buildings":218,"nisarHa":10.12,"nisarMajor":1,"nisarOutcome":"missed"},"geometry":{"type":"Polygon","coordinates":[[[89.70963,25.23516],[89.70973,25.23967],[89.72956,25.2393],[89.72946,25.23479],[89.70963,25.23516]]]}},{"type":"Feature","properties":{"id":"w41","segment":41,"side":"west","union":"udakhali","unionName":"Udakhali","prob":0.548,"risk":"Medium","riskRank":40,"score":0.482,"retreatRecentM":0,"erodedLastHa":1.4,"population":553,"buildings":49,"nisarHa":0.0,"nisarMajor":0,"nisarOutcome":"quiet"},"geometry":{"type":"Polygon","coordinates":[[[89.58446,25.2374],[89.58455,25.24191],[89.60439,25.24156],[89.60429,25.23705],[89.58446,25.2374]]]}},{"type":"Feature","properties":{"id":"e42","segment":42,"side":"east","union":"chikajani","unionName":"Chikajani","prob":0.271,"risk":"Low","riskRank":78,"score":0.48,"retreatRecentM":0,"erodedLastHa":7.76,"population":672,"buildings":297,"nisarHa":3.8,"nisarMajor":0,"nisarOutcome":"quiet"},"geometry":{"type":"Polygon","coordinates":[[[89.71528,25.23054],[89.71538,25.23505],[89.73521,25.23469],[89.73511,25.23018],[89.71528,25.23054]]]}},{"type":"Feature","properties":{"id":"w42","segment":42,"side":"west","union":"gazaria","unionName":"Gazaria","prob":0.397,"risk":"Low","riskRank":57,"score":0.59,"retreatRecentM":140,"erodedLastHa":3.84,"population":461,"buildings":138,"nisarHa":0.0,"nisarMajor":0,"nisarOutcome":"quiet"},"geometry":{"type":"Polygon","coordinates":[[[89.58436,25.23289],[89.58446,25.2374],[89.60429,25.23705],[89.6042,25.23254],[89.58436,25.23289]]]}},{"type":"Feature","properties":{"id":"e43","segment":43,"side":"east","union":"chikajani","unionName":"Chikajani","prob":0.529,"risk":"Medium","riskRank":45,"score":0.643,"retreatRecentM":0,"erodedLastHa":4.12,"population":959,"buildings":405,"nisarHa":2.88,"nisarMajor":0,"nisarOutcome":"quiet"},"geometry":{"type":"Polygon","coordinates":[[[89.71359,25.22606],[89.71369,25.23057],[89.73352,25.2302],[89.73342,25.22569],[89.71359,25.22606]]]}},{"type":"Feature","properties":{"id":"w43","segment":43,"side":"west","union":"gazaria","unionName":"Gazaria","prob":0.578,"risk":"Medium","riskRank":33,"score":0.624,"retreatRecentM":100,"erodedLastHa":2.92,"population":454,"buildings":67,"nisarHa":0.0,"nisarMajor":0,"nisarOutcome":"quiet"},"geometry":{"type":"Polygon","coordinates":[[[89.58506,25.22837],[89.58515,25.23288],[89.60499,25.23253],[89.6049,25.22802],[89.58506,25.22837]]]}},{"type":"Feature","properties":{"id":"e44","segment":44,"side":"east","union":"chikajani","unionName":"Chikajani","prob":0.837,"risk":"High","riskRank":3,"score":0.759,"retreatRecentM":0,"erodedLastHa":0.0,"population":970,"buildings":319,"nisarHa":3.44,"nisarMajor":0,"nisarOutcome":"not_yet"},"geometry":{"type":"Polygon","coordinates":[[[89.7119,25.22158],[89.712,25.22609],[89.73184,25.22572],[89.73174,25.22121],[89.7119,25.22158]]]}},{"type":"Feature","properties":{"id":"w44","segment":44,"side":"west","union":"gazaria","unionName":"Gazaria","prob":0.171,"risk":"Low","riskRank":94,"score":0.347,"retreatRecentM":0,"erodedLastHa":0.08,"population":416,"buildings":134,"nisarHa":2.08,"nisarMajor":0,"nisarOutcome":"quiet"},"geometry":{"type":"Polygon","coordinates":[[[89.58318,25.22389],[89.58327,25.2284],[89.60311,25.22805],[89.60301,25.22354],[89.58318,25.22389]]]}},{"type":"Feature","properties":{"id":"e45","segment":45,"side":"east","union":"chikajani","unionName":"Chikajani","prob":0.558,"risk":"Medium","riskRank":35,"score":0.809,"retreatRecentM":140,"erodedLastHa":5.0,"population":990,"buildings":393,"nisarHa":0.0,"nisarMajor":0,"nisarOutcome":"quiet"},"geometry":{"type":"Polygon","coordinates":[[[89.71954,25.21693],[89.71964,25.22144],[89.73947,25.22107],[89.73937,25.21656],[89.71954,25.21693]]]}},{"type":"Feature","properties":{"id":"w45","segment":45,"side":"west","union":"gazaria","unionName":"Gazaria","prob":0.541,"risk":"Medium","riskRank":42,"score":0.462,"retreatRecentM":0,"erodedLastHa":1.32,"population":327,"buildings":74,"nisarHa":0.4,"nisarMajor":0,"nisarOutcome":"quiet"},"geometry":{"type":"Polygon","coordinates":[[[89.58467,25.21935],[89.58477,25.22386],[89.6046,25.22351],[89.6045,25.219],[89.58467,25.21935]]]}},{"type":"Feature","properties":{"id":"e46","segment":46,"side":"east","union":"bahadurabad","unionName":"Bahadurabad","prob":0.553,"risk":"Medium","riskRank":38,"score":0.748,"retreatRecentM":310,"erodedLastHa":12.68,"population":921,"buildings":172,"nisarHa":0.0,"nisarMajor":0,"nisarOutcome":"quiet"},"geometry":{"type":"Polygon","coordinates":[[[89.724,25.21233],[89.7241,25.21684],[89.74393,25.21648],[89.74383,25.21197],[89.724,25.21233]]]}},{"type":"Feature","properties":{"id":"w46","segment":46,"side":"west","union":"gazaria","unionName":"Gazaria","prob":0.297,"risk":"Low","riskRank":73,"score":0.481,"retreatRecentM":50,"erodedLastHa":0.16,"population":372,"buildings":68,"nisarHa":1.88,"nisarMajor":0,"nisarOutcome":"quiet"},"geometry":{"type":"Polygon","coordinates":[[[89.58457,25.21484],[89.58467,25.21935],[89.6045,25.219],[89.60441,25.21449],[89.58457,25.21484]]]}},{"type":"Feature","properties":{"id":"e47","segment":47,"side":"east","union":"chikajani","unionName":"Chikajani","prob":0.791,"risk":"High","riskRank":8,"score":0.811,"retreatRecentM":230,"erodedLastHa":9.16,"population":956,"buildings":103,"nisarHa":0.12,"nisarMajor":0,"nisarOutcome":"not_yet"},"geometry":{"type":"Polygon","coordinates":[[[89.72608,25.20778],[89.72618,25.21229],[89.74601,25.21192],[89.74591,25.20741],[89.72608,25.20778]]]}},{"type":"Feature","properties":{"id":"w47","segment":47,"side":"west","union":"gazaria","unionName":"Gazaria","prob":0.54,"risk":"Medium","riskRank":44,"score":0.581,"retreatRecentM":90,"erodedLastHa":4.32,"population":368,"buildings":70,"nisarHa":8.28,"nisarMajor":1,"nisarOutcome":"missed"},"geometry":{"type":"Polygon","coordinates":[[[89.58448,25.21033],[89.58457,25.21484],[89.60441,25.21449],[89.60431,25.20998],[89.58448,25.21033]]]}},{"type":"Feature","properties":{"id":"e48","segment":48,"side":"east","union":"chikajani","unionName":"Chikajani","prob":0.563,"risk":"Medium","riskRank":34,"score":0.728,"retreatRecentM":70,"erodedLastHa":7.56,"population":987,"buildings":118,"nisarHa":3.28,"nisarMajor":0,"nisarOutcome":"quiet"},"geometry":{"type":"Polygon","coordinates":[[[89.72717,25.20325],[89.72727,25.20776],[89.7471,25.20739],[89.747,25.20288],[89.72717,25.20325]]]}},{"type":"Feature","properties":{"id":"w48","segment":48,"side":"west","union":"gazaria","unionName":"Gazaria","prob":0.282,"risk":"Low","riskRank":76,"score":0.397,"retreatRecentM":0,"erodedLastHa":0.68,"population":385,"buildings":133,"nisarHa":6.96,"nisarMajor":1,"nisarOutcome":"missed"},"geometry":{"type":"Polygon","coordinates":[[[89.5826,25.20585],[89.58269,25.21036],[89.60253,25.21001],[89.60243,25.2055],[89.5826,25.20585]]]}},{"type":"Feature","properties":{"id":"e49","segment":49,"side":"east","union":"chikajani","unionName":"Chikajani","prob":0.429,"risk":"Low","riskRank":54,"score":0.599,"retreatRecentM":20,"erodedLastHa":1.44,"population":898,"buildings":43,"nisarHa":6.52,"nisarMajor":1,"nisarOutcome":"missed"},"geometry":{"type":"Polygon","coordinates":[[[89.72806,25.19872],[89.72816,25.20323],[89.74799,25.20286],[89.74789,25.19835],[89.72806,25.19872]]]}},{"type":"Feature","properties":{"id":"w49","segment":49,"side":"west","union":"gazaria","unionName":"Gazaria","prob":0.788,"risk":"High","riskRank":9,"score":0.617,"retreatRecentM":0,"erodedLastHa":0.0,"population":647,"buildings":118,"nisarHa":4.56,"nisarMajor":0,"nisarOutcome":"not_yet"},"geometry":{"type":"Polygon","coordinates":[[[89.58052,25.20137],[89.58062,25.20588],[89.60045,25.20553],[89.60035,25.20102],[89.58052,25.20137]]]}},{"type":"Feature","properties":{"id":"e50","segment":50,"side":"east","union":"chikajani","unionName":"Chikajani","prob":0.308,"risk":"Low","riskRank":70,"score":0.584,"retreatRecentM":20,"erodedLastHa":0.0,"population":1029,"buildings":49,"nisarHa":4.28,"nisarMajor":0,"nisarOutcome":"quiet"},"geometry":{"type":"Polygon","coordinates":[[[89.73034,25.19417],[89.73044,25.19868],[89.75027,25.19831],[89.75017,25.1938],[89.73034,25.19417]]]}},{"type":"Feature","properties":{"id":"w50","segment":50,"side":"west","union":"gazaria","unionName":"Gazaria","prob":0.298,"risk":"Low","riskRank":72,"score":0.655,"retreatRecentM":20,"erodedLastHa":0.0,"population":1036,"buildings":239,"nisarHa":0.36,"nisarMajor":0,"nisarOutcome":"quiet"},"geometry":{"type":"Polygon","coordinates":[[[89.57606,25.19694],[89.57616,25.20145],[89.59599,25.2011],[89.59589,25.19659],[89.57606,25.19694]]]}},{"type":"Feature","properties":{"id":"e51","segment":51,"side":"east","union":"chikajani","unionName":"Chikajani","prob":0.181,"risk":"Low","riskRank":93,"score":0.637,"retreatRecentM":90,"erodedLastHa":0.0,"population":1237,"buildings":149,"nisarHa":6.6,"nisarMajor":1,"nisarOutcome":"missed"},"geometry":{"type":"Polygon","coordinates":[[[89.73361,25.18959],[89.73371,25.1941],[89.75354,25.19374],[89.75344,25.18923],[89.73361,25.18959]]]}},{"type":"Feature","properties":{"id":"w51","segment":51,"side":"west","union":"gazaria","unionName":"Gazaria","prob":0.288,"risk":"Low","riskRank":75,"score":0.593,"retreatRecentM":0,"erodedLastHa":0.0,"population":1285,"buildings":189,"nisarHa":0.0,"nisarMajor":0,"nisarOutcome":"quiet"},"geometry":{"type":"Polygon","coordinates":[[[89.57617,25.19242],[89.57626,25.19693],[89.59609,25.19659],[89.596,25.19207],[89.57617,25.19242]]]}},{"type":"Feature","properties":{"id":"e52","segment":52,"side":"east","union":"chikajani","unionName":"Chikajani","prob":0.11,"risk":"Low","riskRank":106,"score":0.63,"retreatRecentM":50,"erodedLastHa":0.0,"population":1359,"buildings":241,"nisarHa":0.0,"nisarMajor":0,"nisarOutcome":"quiet"},"geometry":{"type":"Polygon","coordinates":[[[89.7339,25.18508],[89.73401,25.18959],[89.75383,25.18922],[89.75373,25.18471],[89.7339,25.18508]]]}},{"type":"Feature","properties":{"id":"w52","segment":52,"side":"west","union":"bhartkhali","unionName":"Bhartkhali","prob":0.52,"risk":"Medium","riskRank":46,"score":0.728,"retreatRecentM":0,"erodedLastHa":0.0,"population":1856,"buildings":422,"nisarHa":0.0,"nisarMajor":0,"nisarOutcome":"quiet"},"geometry":{"type":"Polygon","coordinates":[[[89.57726,25.18789],[89.57736,25.1924],[89.59719,25.19205],[89.59709,25.18754],[89.57726,25.18789]]]}},{"type":"Feature","properties":{"id":"e53","segment":53,"side":"east","union":"chikajani","unionName":"Chikajani","prob":0.096,"risk":"Low","riskRank":108,"score":0.573,"retreatRecentM":10,"erodedLastHa":0.0,"population":1423,"buildings":180,"nisarHa":1.24,"nisarMajor":0,"nisarOutcome":"quiet"},"geometry":{"type":"Polygon","coordinates":[[[89.73242,25.18059],[89.73252,25.1851],[89.75234,25.18473],[89.75224,25.18022],[89.73242,25.18059]]]}},{"type":"Feature","properties":{"id":"w53","segment":53,"side":"west","union":"gazaria","unionName":"Gazaria","prob":0.771,"risk":"High","riskRank":12,"score":0.802,"retreatRecentM":0,"erodedLastHa":0.16,"population":1654,"buildings":219,"nisarHa":0.0,"nisarMajor":0,"nisarOutcome":"not_yet"},"geometry":{"type":"Polygon","coordinates":[[[89.57637,25.18339],[89.57647,25.1879],[89.5963,25.18756],[89.5962,25.18305],[89.57637,25.18339]]]}},{"type":"Feature","properties":{"id":"e54","segment":54,"side":"east","union":"chikajani","unionName":"Chikajani","prob":0.034,"risk":"Low","riskRank":146,"score":0.374,"retreatRecentM":0,"erodedLastHa":0.0,"population":1403,"buildings":143,"nisarHa":0.0,"nisarMajor":0,"nisarOutcome":"quiet"},"geometry":{"type":"Polygon","coordinates":[[[89.72954,25.17613],[89.72964,25.18064],[89.74947,25.18028],[89.74937,25.17577],[89.72954,25.17613]]]}},{"type":"Feature","properties":{"id":"w54","segment":54,"side":"west","union":"bhartkhali","unionName":"Bhartkhali","prob":0.243,"risk":"Low","riskRank":85,"score":0.656,"retreatRecentM":50,"erodedLastHa":0.0,"population":1481,"buildings":135,"nisarHa":0.0,"nisarMajor":0,"nisarOutcome":"quiet"},"geometry":{"type":"Polygon","coordinates":[[[89.5735,25.17893],[89.5736,25.18344],[89.59343,25.18309],[89.59333,25.17858],[89.5735,25.17893]]]}},{"type":"Feature","properties":{"id":"e55","segment":55,"side":"east","union":"chikajani","unionName":"Chikajani","prob":0.053,"risk":"Low","riskRank":127,"score":0.499,"retreatRecentM":20,"erodedLastHa":0.0,"population":1127,"buildings":188,"nisarHa":0.0,"nisarMajor":0,"nisarOutcome":"quiet"},"geometry":{"type":"Polygon","coordinates":[[[89.72964,25.17162],[89.72974,25.17613],[89.74956,25.17576],[89.74946,25.17125],[89.72964,25.17162]]]}},{"type":"Feature","properties":{"id":"w55","segment":55,"side":"west","union":"muktanagar","unionName":"Muktanagar","prob":0.645,"risk":"Medium","riskRank":25,"score":0.706,"retreatRecentM":0,"erodedLastHa":5.76,"population":1323,"buildings":110,"nisarHa":0.0,"nisarMajor":0,"nisarOutcome":"quiet"},"geometry":{"type":"Polygon","coordinates":[[[89.57301,25.17443],[89.57311,25.17894],[89.59293,25.17859],[89.59284,25.17408],[89.57301,25.17443]]]}},{"type":"Feature","properties":{"id":"e56","segment":56,"side":"east","union":"chukaibari","unionName":"Chukaibari","prob":0.356,"risk":"Low","riskRank":66,"score":0.547,"retreatRecentM":0,"erodedLastHa":0.0,"population":791,"buildings":320,"nisarHa":0.0,"nisarMajor":0,"nisarOutcome":"quiet"},"geometry":{"type":"Polygon","coordinates":[[[89.72954,25.16711],[89.72964,25.17162],[89.74946,25.17125],[89.74936,25.16674],[89.72954,25.16711]]]}},{"type":"Feature","properties":{"id":"w56","segment":56,"side":"west","union":"muktanagar","unionName":"Muktanagar","prob":0.144,"risk":"Low","riskRank":97,"score":0.535,"retreatRecentM":0,"erodedLastHa":9.08,"population":1343,"buildings":196,"nisarHa":0.04,"nisarMajor":0,"nisarOutcome":"quiet"},"geometry":{"type":"Polygon","coordinates":[[[89.57093,25.16995],[89.57103,25.17446],[89.59086,25.17411],[89.59076,25.1696],[89.57093,25.16995]]]}},{"type":"Feature","properties":{"id":"e57","segment":57,"side":"east","union":"chukaibari","unionName":"Chukaibari","prob":0.368,"risk":"Low","riskRank":63,"score":0.495,"retreatRecentM":0,"erodedLastHa":0.0,"population":828,"buildings":104,"nisarHa":0.0,"nisarMajor":0,"nisarOutcome":"quiet"},"geometry":{"type":"Polygon","coordinates":[[[89.72864,25.16261],[89.72874,25.16712],[89.74857,25.16676],[89.74847,25.16225],[89.72864,25.16261]]]}},{"type":"Feature","properties":{"id":"w57","segment":57,"side":"west","union":"muktanagar","unionName":"Muktanagar","prob":0.826,"risk":"High","riskRank":4,"score":0.797,"retreatRecentM":0,"erodedLastHa":0.0,"population":1312,"buildings":181,"nisarHa":1.56,"nisarMajor":0,"nisarOutcome":"not_yet"},"geometry":{"type":"Polygon","coordinates":[[[89.57322,25.1654],[89.57331,25.16991],[89.59314,25.16956],[89.59304,25.16505],[89.57322,25.1654]]]}},{"type":"Feature","properties":{"id":"e58","segment":58,"side":"east","union":"chukaibari","unionName":"Chukaibari","prob":0.584,"risk":"Medium","riskRank":31,"score":0.569,"retreatRecentM":0,"erodedLastHa":0.0,"population":769,"buildings":77,"nisarHa":0.0,"nisarMajor":0,"nisarOutcome":"quiet"},"geometry":{"type":"Polygon","coordinates":[[[89.72854,25.1581],[89.72864,25.16261],[89.74847,25.16225],[89.74837,25.15774],[89.72854,25.1581]]]}},{"type":"Feature","properties":{"id":"w58","segment":58,"side":"west","union":"muktanagar","unionName":"Muktanagar","prob":0.096,"risk":"Low","riskRank":110,"score":0.47,"retreatRecentM":0,"erodedLastHa":0.0,"population":1209,"buildings":164,"nisarHa":0.0,"nisarMajor":0,"nisarOutcome":"quiet"},"geometry":{"type":"Polygon","coordinates":[[[89.56916,25.16096],[89.56925,25.16547],[89.58908,25.16512],[89.58898,25.16061],[89.56916,25.16096]]]}},{"type":"Feature","properties":{"id":"e59","segment":59,"side":"east","union":"chukaibari","unionName":"Chukaibari","prob":0.769,"risk":"High","riskRank":14,"score":0.593,"retreatRecentM":0,"erodedLastHa":0.0,"population":743,"buildings":7,"nisarHa":0.0,"nisarMajor":0,"nisarOutcome":"not_yet"},"geometry":{"type":"Polygon","coordinates":[[[89.72844,25.15359],[89.72854,25.1581],[89.74837,25.15774],[89.74826,25.15323],[89.72844,25.15359]]]}},{"type":"Feature","properties":{"id":"w59","segment":59,"side":"west","union":"muktanagar","unionName":"Muktanagar","prob":0.087,"risk":"Low","riskRank":115,"score":0.442,"retreatRecentM":0,"erodedLastHa":0.0,"population":1223,"buildings":130,"nisarHa":0.0,"nisarMajor":0,"nisarOutcome":"quiet"},"geometry":{"type":"Polygon","coordinates":[[[89.56986,25.15643],[89.56995,25.16094],[89.58978,25.1606],[89.58968,25.15609],[89.56986,25.15643]]]}},{"type":"Feature","properties":{"id":"e60","segment":60,"side":"east","union":"chukaibari","unionName":"Chukaibari","prob":0.579,"risk":"Medium","riskRank":32,"score":0.548,"retreatRecentM":0,"erodedLastHa":2.32,"population":753,"buildings":15,"nisarHa":3.44,"nisarMajor":0,"nisarOutcome":"quiet"},"geometry":{"type":"Polygon","coordinates":[[[89.72993,25.14905],[89.73003,25.15356],[89.74985,25.1532],[89.74975,25.14869],[89.72993,25.14905]]]}},{"type":"Feature","properties":{"id":"w60","segment":60,"side":"west","union":"muktanagar","unionName":"Muktanagar","prob":0.075,"risk":"Low","riskRank":120,"score":0.425,"retreatRecentM":0,"erodedLastHa":0.0,"population":1179,"buildings":145,"nisarHa":0.0,"nisarMajor":0,"nisarOutcome":"quiet"},"geometry":{"type":"Polygon","coordinates":[[[89.56996,25.15192],[89.57005,25.15643],[89.58988,25.15608],[89.58978,25.15157],[89.56996,25.15192]]]}},{"type":"Feature","properties":{"id":"e61","segment":61,"side":"east","union":"chukaibari","unionName":"Chukaibari","prob":0.776,"risk":"High","riskRank":10,"score":0.634,"retreatRecentM":0,"erodedLastHa":0.0,"population":859,"buildings":38,"nisarHa":0.0,"nisarMajor":0,"nisarOutcome":"not_yet"},"geometry":{"type":"Polygon","coordinates":[[[89.7326,25.14449],[89.7327,25.149],[89.75252,25.14863],[89.75242,25.14412],[89.7326,25.14449]]]}},{"type":"Feature","properties":{"id":"w61","segment":61,"side":"west","union":"sughatta","unionName":"Sughatta","prob":0.048,"risk":"Low","riskRank":133,"score":0.391,"retreatRecentM":0,"erodedLastHa":1.92,"population":1134,"buildings":176,"nisarHa":0.0,"nisarMajor":0,"nisarOutcome":"quiet"},"geometry":{"type":"Polygon","coordinates":[[[89.57066,25.14739],[89.57075,25.1519],[89.59058,25.15156],[89.59048,25.14705],[89.57066,25.14739]]]}},{"type":"Feature","properties":{"id":"e62","segment":62,"side":"east","union":"chukaibari","unionName":"Chukaibari","prob":0.182,"risk":"Low","riskRank":92,"score":0.49,"retreatRecentM":0,"erodedLastHa":0.0,"population":1060,"buildings":167,"nisarHa":0.0,"nisarMajor":0,"nisarOutcome":"quiet"},"geometry":{"type":"Polygon","coordinates":[[[89.73845,25.13987],[89.73855,25.14438],[89.75837,25.14401],[89.75827,25.1395],[89.73845,25.13987]]]}},{"type":"Feature","properties":{"id":"w62","segment":62,"side":"west","union":"sughatta","unionName":"Sughatta","prob":0.156,"risk":"Low","riskRank":95,"score":0.486,"retreatRecentM":0,"erodedLastHa":2.36,"population":1127,"buildings":148,"nisarHa":0.0,"nisarMajor":0,"nisarOutcome":"quiet"},"geometry":{"type":"Polygon","coordinates":[[[89.57155,25.14286],[89.57165,25.14737],[89.59147,25.14703],[89.59138,25.14252],[89.57155,25.14286]]]}},{"type":"Feature","properties":{"id":"e63","segment":63,"side":"east","union":"chukaibari","unionName":"Chukaibari","prob":0.023,"risk":"Low","riskRank":154,"score":0.355,"retreatRecentM":0,"erodedLastHa":0.0,"population":1181,"buildings":209,"nisarHa":0.0,"nisarMajor":0,"nisarOutcome":"quiet"},"geometry":{"type":"Polygon","coordinates":[[[89.74191,25.13529],[89.74202,25.1398],[89.76183,25.13944],[89.76173,25.13493],[89.74191,25.13529]]]}},{"type":"Feature","properties":{"id":"w63","segment":63,"side":"west","union":"sughatta","unionName":"Sughatta","prob":0.056,"risk":"Low","riskRank":125,"score":0.411,"retreatRecentM":0,"erodedLastHa":0.96,"population":1158,"buildings":158,"nisarHa":0.0,"nisarMajor":0,"nisarOutcome":"quiet"},"geometry":{"type":"Polygon","coordinates":[[[89.57265,25.13833],[89.57274,25.14284],[89.59257,25.1425],[89.59247,25.13799],[89.57265,25.13833]]]}},{"type":"Feature","properties":{"id":"e64","segment":64,"side":"east","union":"patharsi","unionName":"Patharsi","prob":0.019,"risk":"Low","riskRank":160,"score":0.351,"retreatRecentM":0,"erodedLastHa":0.0,"population":1172,"buildings":295,"nisarHa":0.0,"nisarMajor":0,"nisarOutcome":"quiet"},"geometry":{"type":"Polygon","coordinates":[[[89.73845,25.13085],[89.73855,25.13536],[89.75836,25.13499],[89.75826,25.13048],[89.73845,25.13085]]]}},{"type":"Feature","properties":{"id":"w64","segment":64,"side":"west","union":"sughatta","unionName":"Sughatta","prob":0.052,"risk":"Low","riskRank":129,"score":0.409,"retreatRecentM":0,"erodedLastHa":0.0,"population":1169,"buildings":175,"nisarHa":0.0,"nisarMajor":0,"nisarOutcome":"quiet"},"geometry":{"type":"Polygon","coordinates":[[[89.57493,25.13378],[89.57503,25.13829],[89.59485,25.13795],[89.59475,25.13343],[89.57493,25.13378]]]}},{"type":"Feature","properties":{"id":"e65","segment":65,"side":"east","union":"patharsi","unionName":"Patharsi","prob":0.114,"risk":"Low","riskRank":104,"score":0.517,"retreatRecentM":0,"erodedLastHa":0.0,"population":1160,"buildings":354,"nisarHa":0.0,"nisarMajor":0,"nisarOutcome":"quiet"},"geometry":{"type":"Polygon","coordinates":[[[89.7318,25.12646],[89.73191,25.13097],[89.75172,25.1306],[89.75162,25.12609],[89.7318,25.12646]]]}},{"type":"Feature","properties":{"id":"w65","segment":65,"side":"west","union":"sughatta","unionName":"Sughatta","prob":0.041,"risk":"Low","riskRank":139,"score":0.455,"retreatRecentM":10,"erodedLastHa":0.2,"population":1150,"buildings":204,"nisarHa":0.0,"nisarMajor":0,"nisarOutcome":"quiet"},"geometry":{"type":"Polygon","coordinates":[[[89.57583,25.12925],[89.57592,25.13376],[89.59575,25.13342],[89.59565,25.12891],[89.57583,25.12925]]]}},{"type":"Feature","properties":{"id":"e66","segment":66,"side":"east","union":"kulkandi","unionName":"Kulkandi","prob":0.015,"risk":"Low","riskRank":168,"score":0.248,"retreatRecentM":0,"erodedLastHa":0.0,"population":811,"buildings":289,"nisarHa":0.0,"nisarMajor":0,"nisarOutcome":"quiet"},"geometry":{"type":"Polygon","coordinates":[[[89.71308,25.12229],[89.71318,25.1268],[89.73299,25.12644],[89.73289,25.12193],[89.71308,25.12229]]]}},{"type":"Feature","properties":{"id":"w66","segment":66,"side":"west","union":"sughatta","unionName":"Sughatta","prob":0.246,"risk":"Low","riskRank":81,"score":0.649,"retreatRecentM":80,"erodedLastHa":2.04,"population":1156,"buildings":148,"nisarHa":0.0,"nisarMajor":0,"nisarOutcome":"quiet"},"geometry":{"type":"Polygon","coordinates":[[[89.57514,25.12475],[89.57524,25.12926],[89.59506,25.12892],[89.59496,25.12441],[89.57514,25.12475]]]}},{"type":"Feature","properties":{"id":"e67","segment":67,"side":"east","union":"kulkandi","unionName":"Kulkandi","prob":0.114,"risk":"Low","riskRank":105,"score":0.465,"retreatRecentM":10,"erodedLastHa":5.72,"population":787,"buildings":167,"nisarHa":0.0,"nisarMajor":0,"nisarOutcome":"quiet"},"geometry":{"type":"Polygon","coordinates":[[[89.71,25.11783],[89.7101,25.12234],[89.72992,25.12198],[89.72982,25.11747],[89.71,25.11783]]]}},{"type":"Feature","properties":{"id":"w67","segment":67,"side":"west","union":"sughatta","unionName":"Sughatta","prob":0.771,"risk":"High","riskRank":11,"score":0.884,"retreatRecentM":100,"erodedLastHa":2.84,"population":1278,"buildings":148,"nisarHa":0.0,"nisarMajor":0,"nisarOutcome":"not_yet"},"geometry":{"type":"Polygon","coordinates":[[[89.57386,25.12026],[89.57395,25.12477],[89.59377,25.12443],[89.59368,25.11992],[89.57386,25.12026]]]}},{"type":"Feature","properties":{"id":"e68","segment":68,"side":"east","union":"kulkandi","unionName":"Kulkandi","prob":0.7,"risk":"Medium","riskRank":20,"score":0.71,"retreatRecentM":20,"erodedLastHa":7.2,"population":789,"buildings":128,"nisarHa":0.0,"nisarMajor":0,"nisarOutcome":"quiet"},"geometry":{"type":"Polygon","coordinates":[[[89.70891,25.11334],[89.70901,25.11785],[89.72883,25.11749],[89.72873,25.11298],[89.70891,25.11334]]]}},{"type":"Feature","properties":{"id":"w68","segment":68,"side":"west","union":"sughatta","unionName":"Sughatta","prob":0.77,"risk":"High","riskRank":13,"score":0.87,"retreatRecentM":10,"erodedLastHa":1.72,"population":1563,"buildings":236,"nisarHa":0.0,"nisarMajor":0,"nisarOutcome":"not_yet"},"geometry":{"type":"Polygon","coordinates":[[[89.57198,25.11578],[89.57207,25.12029],[89.59189,25.11995],[89.5918,25.11544],[89.57198,25.11578]]]}},{"type":"Feature","properties":{"id":"e69","segment":69,"side":"east","union":"kulkandi","unionName":"Kulkandi","prob":0.817,"risk":"High","riskRank":6,"score":0.653,"retreatRecentM":0,"erodedLastHa":11.48,"population":833,"buildings":78,"nisarHa":0.0,"nisarMajor":0,"nisarOutcome":"not_yet"},"geometry":{"type":"Polygon","coordinates":[[[89.70663,25.10887],[89.70673,25.11338],[89.72655,25.11302],[89.72645,25.10851],[89.70663,25.10887]]]}},{"type":"Feature","properties":{"id":"w69","segment":69,"side":"west","union":"ghuridaha","unionName":"Ghuridaha","prob":0.291,"risk":"Low","riskRank":74,"score":0.76,"retreatRecentM":80,"erodedLastHa":9.92,"population":1949,"buildings":374,"nisarHa":0.0,"nisarMajor":0,"nisarOutcome":"quiet"},"geometry":{"type":"Polygon","coordinates":[[[89.56812,25.11134],[89.56821,25.11585],[89.58803,25.1155],[89.58794,25.11099],[89.56812,25.11134]]]}},{"type":"Feature","properties":{"id":"e70","segment":70,"side":"east","union":"belgachha","unionName":"Belgachha","prob":0.557,"risk":"Medium","riskRank":36,"score":0.569,"retreatRecentM":0,"erodedLastHa":8.4,"population":761,"buildings":119,"nisarHa":0.0,"nisarMajor":0,"nisarOutcome":"quiet"},"geometry":{"type":"Polygon","coordinates":[[[89.70475,25.10439],[89.70485,25.1089],[89.72467,25.10854],[89.72457,25.10403],[89.70475,25.10439]]]}},{"type":"Feature","properties":{"id":"w70","segment":70,"side":"west","union":"ghuridaha","unionName":"Ghuridaha","prob":0.088,"risk":"Low","riskRank":114,"score":0.666,"retreatRecentM":380,"erodedLastHa":8.96,"population":1708,"buildings":386,"nisarHa":0.0,"nisarMajor":0,"nisarOutcome":"quiet"},"geometry":{"type":"Polygon","coordinates":[[[89.56703,25.10684],[89.56713,25.11135],[89.58695,25.11101],[89.58685,25.1065],[89.56703,25.10684]]]}},{"type":"Feature","properties":{"id":"e71","segment":71,"side":"east","union":"belgachha","unionName":"Belgachha","prob":0.506,"risk":"Medium","riskRank":49,"score":0.504,"retreatRecentM":0,"erodedLastHa":4.44,"population":702,"buildings":94,"nisarHa":0.0,"nisarMajor":0,"nisarOutcome":"quiet"},"geometry":{"type":"Polygon","coordinates":[[[89.70327,25.09991],[89.70337,25.10442],[89.72318,25.10406],[89.72308,25.09954],[89.70327,25.09991]]]}},{"type":"Feature","properties":{"id":"w71","segment":71,"side":"west","union":"ghuridaha","unionName":"Ghuridaha","prob":0.096,"risk":"Low","riskRank":109,"score":0.673,"retreatRecentM":370,"erodedLastHa":7.48,"population":1406,"buildings":376,"nisarHa":0.0,"nisarMajor":0,"nisarOutcome":"quiet"},"geometry":{"type":"Polygon","coordinates":[[[89.56753,25.10232],[89.56763,25.10683],[89.58745,25.10649],[89.58735,25.10198],[89.56753,25.10232]]]}},{"type":"Feature","properties":{"id":"e72","segment":72,"side":"east","union":"belgachha","unionName":"Belgachha","prob":0.384,"risk":"Low","riskRank":59,"score":0.453,"retreatRecentM":0,"erodedLastHa":0.0,"population":672,"buildings":49,"nisarHa":0.0,"nisarMajor":0,"nisarOutcome":"quiet"},"geometry":{"type":"Polygon","coordinates":[[[89.70237,25.09541],[89.70247,25.09992],[89.72229,25.09956],[89.72219,25.09505],[89.70237,25.09541]]]}},{"type":"Feature","properties":{"id":"w72","segment":72,"side":"west","union":"ghuridaha","unionName":"Ghuridaha","prob":0.045,"risk":"Low","riskRank":137,"score":0.57,"retreatRecentM":240,"erodedLastHa":1.8,"population":1265,"buildings":321,"nisarHa":0.0,"nisarMajor":0,"nisarOutcome":"quiet"},"geometry":{"type":"Polygon","coordinates":[[[89.56803,25.0978],[89.56813,25.10231],[89.58794,25.10197],[89.58785,25.09745],[89.56803,25.0978]]]}},{"type":"Feature","properties":{"id":"e73","segment":73,"side":"east","union":"belgachha","unionName":"Belgachha","prob":0.366,"risk":"Low","riskRank":64,"score":0.453,"retreatRecentM":0,"erodedLastHa":0.0,"population":619,"buildings":119,"nisarHa":0.0,"nisarMajor":0,"nisarOutcome":"quiet"},"geometry":{"type":"Polygon","coordinates":[[[89.70188,25.09091],[89.70198,25.09542],[89.72179,25.09506],[89.72169,25.09055],[89.70188,25.09091]]]}},{"type":"Feature","properties":{"id":"w73","segment":73,"side":"west","union":"jummerbari","unionName":"Jummerbari","prob":0.02,"risk":"Low","riskRank":158,"score":0.317,"retreatRecentM":0,"erodedLastHa":0.0,"population":1120,"buildings":184,"nisarHa":0.0,"nisarMajor":0,"nisarOutcome":"quiet"},"geometry":{"type":"Polygon","coordinates":[[[89.56794,25.09329],[89.56803,25.0978],[89.58785,25.09745],[89.58775,25.09294],[89.56794,25.09329]]]}},{"type":"Feature","properties":{"id":"e74","segment":74,"side":"east","union":"chinadulli","unionName":"Chinadulli","prob":0.371,"risk":"Low","riskRank":61,"score":0.521,"retreatRecentM":0,"erodedLastHa":0.0,"population":614,"buildings":374,"nisarHa":0.0,"nisarMajor":0,"nisarOutcome":"quiet"},"geometry":{"type":"Polygon","coordinates":[[[89.70218,25.08639],[89.70228,25.0909],[89.72209,25.09054],[89.72199,25.08603],[89.70218,25.08639]]]}},{"type":"Feature","properties":{"id":"w74","segment":74,"side":"west","union":"jummerbari","unionName":"Jummerbari","prob":0.208,"risk":"Low","riskRank":88,"score":0.524,"retreatRecentM":0,"erodedLastHa":0.0,"population":1170,"buildings":160,"nisarHa":0.0,"nisarMajor":0,"nisarOutcome":"quiet"},"geometry":{"type":"Polygon","coordinates":[[[89.56666,25.0888],[89.56675,25.09331],[89.58657,25.09296],[89.58647,25.08845],[89.56666,25.0888]]]}},{"type":"Feature","properties":{"id":"e75","segment":75,"side":"east","union":"chinadulli","unionName":"Chinadulli","prob":0.825,"risk":"High","riskRank":5,"score":0.644,"retreatRecentM":0,"erodedLastHa":0.0,"population":589,"buildings":181,"nisarHa":0.0,"nisarMajor":0,"nisarOutcome":"not_yet"},"geometry":{"type":"Polygon","coordinates":[[[89.70426,25.08184],[89.70436,25.08635],[89.72417,25.08599],[89.72407,25.08148],[89.70426,25.08184]]]}},{"type":"Feature","properties":{"id":"w75","segment":75,"side":"west","union":"jummerbari","unionName":"Jummerbari","prob":0.064,"risk":"Low","riskRank":123,"score":0.424,"retreatRecentM":0,"erodedLastHa":0.0,"population":1189,"buildings":155,"nisarHa":0.0,"nisarMajor":0,"nisarOutcome":"quiet"},"geometry":{"type":"Polygon","coordinates":[[[89.56399,25.08433],[89.56408,25.08884],[89.5839,25.0885],[89.5838,25.08399],[89.56399,25.08433]]]}},{"type":"Feature","properties":{"id":"e76","segment":76,"side":"east","union":"chinadulli","unionName":"Chinadulli","prob":0.44,"risk":"Low","riskRank":53,"score":0.486,"retreatRecentM":0,"erodedLastHa":0.0,"population":664,"buildings":103,"nisarHa":0.0,"nisarMajor":0,"nisarOutcome":"quiet"},"geometry":{"type":"Polygon","coordinates":[[[89.70891,25.07724],[89.70901,25.08175],[89.72882,25.08139],[89.72872,25.07688],[89.70891,25.07724]]]}},{"type":"Feature","properties":{"id":"w76","segment":76,"side":"west","union":"jummerbari","unionName":"Jummerbari","prob":0.014,"risk":"Low","riskRank":169,"score":0.326,"retreatRecentM":0,"erodedLastHa":0.0,"population":1203,"buildings":246,"nisarHa":0.0,"nisarMajor":0,"nisarOutcome":"quiet"},"geometry":{"type":"Polygon","coordinates":[[[89.56152,25.07986],[89.56161,25.08437],[89.58142,25.08403],[89.58133,25.07952],[89.56152,25.07986]]]}},{"type":"Feature","properties":{"id":"e77","segment":77,"side":"east","union":"chinadulli","unionName":"Chinadulli","prob":0.064,"risk":"Low","riskRank":122,"score":0.385,"retreatRecentM":10,"erodedLastHa":0.0,"population":851,"buildings":71,"nisarHa":0.0,"nisarMajor":0,"nisarOutcome":"quiet"},"geometry":{"type":"Polygon","coordinates":[[[89.72545,25.07243],[89.72555,25.07694],[89.74536,25.07657],[89.74526,25.07206],[89.72545,25.07243]]]}},{"type":"Feature","properties":{"id":"w77","segment":77,"side":"west","union":"jummerbari","unionName":"Jummerbari","prob":0.014,"risk":"Low","riskRank":171,"score":0.293,"retreatRecentM":0,"erodedLastHa":0.0,"population":1129,"buildings":211,"nisarHa":0.0,"nisarMajor":0,"nisarOutcome":"quiet"},"geometry":{"type":"Polygon","coordinates":[[[89.56023,25.07537],[89.56033,25.07988],[89.58014,25.07954],[89.58004,25.07503],[89.56023,25.07537]]]}},{"type":"Feature","properties":{"id":"e78","segment":78,"side":"east","union":"chinadulli","unionName":"Chinadulli","prob":0.046,"risk":"Low","riskRank":135,"score":0.442,"retreatRecentM":30,"erodedLastHa":0.0,"population":992,"buildings":160,"nisarHa":0.0,"nisarMajor":0,"nisarOutcome":"quiet"},"geometry":{"type":"Polygon","coordinates":[[[89.7309,25.06782],[89.731,25.07233],[89.75081,25.07196],[89.75071,25.06745],[89.7309,25.06782]]]}},{"type":"Feature","properties":{"id":"w78","segment":78,"side":"west","union":"jummerbari","unionName":"Jummerbari","prob":0.014,"risk":"Low","riskRank":172,"score":0.288,"retreatRecentM":0,"erodedLastHa":0.0,"population":1102,"buildings":238,"nisarHa":0.0,"nisarMajor":0,"nisarOutcome":"quiet"},"geometry":{"type":"Polygon","coordinates":[[[89.56034,25.07086],[89.56043,25.07537],[89.58024,25.07502],[89.58015,25.07051],[89.56034,25.07086]]]}},{"type":"Feature","properties":{"id":"e79","segment":79,"side":"east","union":"chinadulli","unionName":"Chinadulli","prob":0.029,"risk":"Low","riskRank":150,"score":0.288,"retreatRecentM":0,"erodedLastHa":0.0,"population":954,"buildings":159,"nisarHa":0.0,"nisarMajor":0,"nisarOutcome":"quiet"},"geometry":{"type":"Polygon","coordinates":[[[89.73377,25.06325],[89.73387,25.06776],[89.75368,25.06739],[89.75358,25.06288],[89.73377,25.06325]]]}},{"type":"Feature","properties":{"id":"w79","segment":79,"side":"west","union":"haldia","unionName":"Haldia","prob":0.017,"risk":"Low","riskRank":166,"score":0.313,"retreatRecentM":0,"erodedLastHa":0.0,"population":1111,"buildings":258,"nisarHa":0.0,"nisarMajor":0,"nisarOutcome":"quiet"},"geometry":{"type":"Polygon","coordinates":[[[89.56084,25.06634],[89.56093,25.07085],[89.58074,25.0705],[89.58065,25.06599],[89.56084,25.06634]]]}},{"type":"Feature","properties":{"id":"e80","segment":80,"side":"east","union":"chinadulli","unionName":"Chinadulli","prob":0.03,"risk":"Low","riskRank":149,"score":0.332,"retreatRecentM":10,"erodedLastHa":0.0,"population":873,"buildings":120,"nisarHa":0.0,"nisarMajor":0,"nisarOutcome":"quiet"},"geometry":{"type":"Polygon","coordinates":[[[89.73506,25.05871],[89.73516,25.06323],[89.75496,25.06286],[89.75486,25.05835],[89.73506,25.05871]]]}},{"type":"Feature","properties":{"id":"w80","segment":80,"side":"west","union":"jummerbari","unionName":"Jummerbari","prob":0.018,"risk":"Low","riskRank":162,"score":0.335,"retreatRecentM":10,"erodedLastHa":0.0,"population":1006,"buildings":155,"nisarHa":0.0,"nisarMajor":0,"nisarOutcome":"quiet"},"geometry":{"type":"Polygon","coordinates":[[[89.56173,25.06181],[89.56183,25.06632],[89.58164,25.06598],[89.58154,25.06146],[89.56173,25.06181]]]}},{"type":"Feature","properties":{"id":"e81","segment":81,"side":"east","union":"chinadulli","unionName":"Chinadulli","prob":0.036,"risk":"Low","riskRank":144,"score":0.374,"retreatRecentM":20,"erodedLastHa":0.0,"population":942,"buildings":120,"nisarHa":0.0,"nisarMajor":0,"nisarOutcome":"quiet"},"geometry":{"type":"Polygon","coordinates":[[[89.73436,25.05422],[89.73446,25.05873],[89.75427,25.05836],[89.75417,25.05385],[89.73436,25.05422]]]}},{"type":"Feature","properties":{"id":"w81","segment":81,"side":"west","union":"jummerbari","unionName":"Jummerbari","prob":0.044,"risk":"Low","riskRank":138,"score":0.443,"retreatRecentM":20,"erodedLastHa":0.0,"population":1031,"buildings":188,"nisarHa":0.0,"nisarMajor":0,"nisarOutcome":"quiet"},"geometry":{"type":"Polygon","coordinates":[[[89.56124,25.0573],[89.56134,25.06181],[89.58115,25.06147],[89.58105,25.05696],[89.56124,25.0573]]]}},{"type":"Feature","properties":{"id":"e82","segment":82,"side":"east","union":"chinadulli","unionName":"Chinadulli","prob":0.026,"risk":"Low","riskRank":152,"score":0.305,"retreatRecentM":0,"erodedLastHa":0.24,"population":970,"buildings":203,"nisarHa":2.68,"nisarMajor":0,"nisarOutcome":"quiet"},"geometry":{"type":"Polygon","coordinates":[[[89.73109,25.04976],[89.73119,25.05427],[89.751,25.05391],[89.7509,25.0494],[89.73109,25.04976]]]}},{"type":"Feature","properties":{"id":"w82","segment":82,"side":"west","union":"jummerbari","unionName":"Jummerbari","prob":0.015,"risk":"Low","riskRank":167,"score":0.357,"retreatRecentM":10,"erodedLastHa":0.0,"population":1040,"buildings":218,"nisarHa":0.0,"nisarMajor":0,"nisarOutcome":"quiet"},"geometry":{"type":"Polygon","coordinates":[[[89.56115,25.05279],[89.56124,25.0573],[89.58105,25.05696],[89.58096,25.05245],[89.56115,25.05279]]]}},{"type":"Feature","properties":{"id":"e83","segment":83,"side":"east","union":"chinadulli","unionName":"Chinadulli","prob":0.036,"risk":"Low","riskRank":142,"score":0.403,"retreatRecentM":20,"erodedLastHa":0.28,"population":927,"buildings":185,"nisarHa":0.0,"nisarMajor":0,"nisarOutcome":"quiet"},"geometry":{"type":"Polygon","coordinates":[[[89.72822,25.0453],[89.72832,25.04981],[89.74812,25.04945],[89.74802,25.04494],[89.72822,25.0453]]]}},{"type":"Feature","properties":{"id":"w83","segment":83,"side":"west","union":"jummerbari","unionName":"Jummerbari","prob":0.019,"risk":"Low","riskRank":159,"score":0.273,"retreatRecentM":0,"erodedLastHa":0.0,"population":1089,"buildings":111,"nisarHa":0.0,"nisarMajor":0,"nisarOutcome":"quiet"},"geometry":{"type":"Polygon","coordinates":[[[89.56145,25.04827],[89.56155,25.05279],[89.58135,25.05244],[89.58126,25.04793],[89.56145,25.04827]]]}},{"type":"Feature","properties":{"id":"e84","segment":84,"side":"east","union":"chinadulli","unionName":"Chinadulli","prob":0.034,"risk":"Low","riskRank":145,"score":0.444,"retreatRecentM":100,"erodedLastHa":0.0,"population":938,"buildings":207,"nisarHa":0.0,"nisarMajor":0,"nisarOutcome":"quiet"},"geometry":{"type":"Polygon","coordinates":[[[89.72634,25.04083],[89.72644,25.04534],[89.74624,25.04497],[89.74614,25.04046],[89.72634,25.04083]]]}},{"type":"Feature","properties":{"id":"w84","segment":84,"side":"west","union":"jummerbari","unionName":"Jummerbari","prob":0.144,"risk":"Low","riskRank":98,"score":0.479,"retreatRecentM":0,"erodedLastHa":0.8,"population":1019,"buildings":215,"nisarHa":0.0,"nisarMajor":0,"nisarOutcome":"quiet"},"geometry":{"type":"Polygon","coordinates":[[[89.56116,25.04377],[89.56125,25.04828],[89.58106,25.04794],[89.58097,25.04342],[89.56116,25.04377]]]}},{"type":"Feature","properties":{"id":"e85","segment":85,"side":"east","union":"noarpara","unionName":"Noarpara","prob":0.093,"risk":"Low","riskRank":111,"score":0.508,"retreatRecentM":340,"erodedLastHa":5.44,"population":954,"buildings":87,"nisarHa":0.0,"nisarMajor":0,"nisarOutcome":"quiet"},"geometry":{"type":"Polygon","coordinates":[[[89.72485,25.03634],[89.72495,25.04085],[89.74475,25.04049],[89.74465,25.03598],[89.72485,25.03634]]]}},{"type":"Feature","properties":{"id":"w85","segment":85,"side":"west","union":"jummerbari","unionName":"Jummerbari","prob":0.144,"risk":"Low","riskRank":99,"score":0.456,"retreatRecentM":5,"erodedLastHa":3.36,"population":899,"buildings":84,"nisarHa":0.0,"nisarMajor":0,"nisarOutcome":"quiet"},"geometry":{"type":"Polygon","coordinates":[[[89.55978,25.03928],[89.55987,25.04379],[89.57968,25.04345],[89.57959,25.03894],[89.55978,25.03928]]]}}]}